OBJECT_NAME,OBJECT_ID,EPOCH,MEAN_MOTION,ECCENTRICITY,INCLINATION,RA_OF_ASC_NODE,ARG_OF_PERICENTER,MEAN_ANOMALY,EPHEMERIS_TYPE,CLASSIFICATION_TYPE,NORAD_CAT_ID,ELEMENT_SET_NO,REV_AT_EPOCH,BSTAR,MEAN_MOTION_DOT,MEAN_MOTION_DDOT
SCD 1,1993-009B,2026-06-29T22:18:15.299136,14.46123593,.00416298,24.9684,128.8985,272.8435,136.6640,0,U,22490,999,76296,.65876063E-4,.428E-5,0
TECHSAT 1B (GO-32),1998-043D,2026-06-30T11:32:20.406336,14.24430945,.00017001,99.0072,174.5750,138.6209,221.5098,0,U,25397,999,45322,.46516052E-4,.61E-6,0
SCD 2,1998-060A,2026-06-30T03:56:31.281216,14.45530616,.00165349,24.9967,352.1310,260.2663,261.7658,0,U,25504,999,46220,.58644565E-4,.393E-5,0
DLR-TUBSAT,1999-029B,2026-06-30T14:08:29.779584,14.52430123,.00133307,98.6701,177.5345,312.9188,47.0887,0,U,25757,999,43519,.35368663E-4,.96E-6,0
TERRA,1999-068A,2026-06-30T14:18:19.706688,14.61113534,.00026005,97.9450,230.6103,153.0856,8.2894,0,U,25994,999,41156,.9115705E-4,.404E-5,0
MAROC-TUBSAT,2001-056D,2026-06-30T12:16:46.036416,13.70263063,.00205701,99.8087,358.6226,108.4018,320.3548,0,U,27004,999,22801,.18682082E-4,-.3E-6,0
AQUA,2002-022A,2026-06-30T12:52:27.722208,14.62177796,.00006985,98.4284,151.0865,73.0327,354.1844,0,U,27424,999,28522,.16248342E-3,.768E-5,0
SHIYAN-1 (SY-1),2004-012A,2026-06-30T03:57:58.184064,15.34085164,.00044852,97.8693,260.0791,344.4967,15.6137,0,U,28220,999,21308,.37736803E-3,.1237E-3,0
AURA,2004-026A,2026-06-30T13:02:25.408896,14.61348648,.00011616,98.3423,138.1077,84.3984,275.7348,0,U,28376,999,16816,.1657038E-3,.771E-5,0
IRS-P5 (CARTOSAT-1),2005-017A,2026-06-30T11:59:47.913504,14.91083876,.00021561,97.5305,203.9605,64.6226,295.5216,0,U,28649,999,14580,.14294372E-3,.1364E-4,0
SINAH 1,2005-043D,2026-06-30T14:02:49.921728,14.64166545,.00134467,98.2878,315.9872,230.9964,129.0041,0,U,28893,999,10248,.69708036E-4,.317E-5,0
RESURS-DK 1,2006-021A,2026-06-30T10:53:54.522528,15.13270569,.00066795,69.9341,305.2102,285.3689,74.6739,0,U,29228,999,10458,.12631885E-3,.2144E-4,0
ARIRANG-2 (KOMPSAT-2),2006-031A,2026-06-30T13:15:10.214784,14.64667118,.00153928,97.8303,5.3520,35.7519,57.0795,0,U,29268,999,6343,.285413E-5,-.3E-6,0
LAPAN-TUBSAT,2007-001A,2026-06-30T12:28:38.800992,14.85963103,.00129171,98.1339,181.0448,136.9229,223.2999,0,U,29709,999,5313,.30135957E-4,.206E-5,0
HAIYANG-1B,2007-010A,2026-06-30T10:18:40.329216,14.31030131,.00138922,98.3501,162.7616,157.0891,203.0915,0,U,31113,999,253,.50222182E-4,.91E-6,0
COSMO-SKYMED 1,2007-023A,2026-06-30T13:39:20.203776,14.97168254,.00015391,97.8856,13.5378,84.0270,276.1126,0,U,31598,999,3179,.17103715E-3,.1916E-4,0
TERRASAR-X,2007-026A,2026-06-29T12:13:05.734560,15.19149675,.00018266,97.4453,188.0412,86.2627,273.8816,0,U,31698,999,5509,.25266505E-4,.464E-5,0
WORLDVIEW-1 (WV-1),2007-041A,2026-06-30T13:15:15.126624,15.24410154,.00010674,97.3895,301.1053,320.2738,39.8421,0,U,32060,999,4491,.25044134E-3,.607E-4,0
YAOGAN-3,2007-055A,2026-06-30T13:13:43.812192,14.90829253,.00016135,97.8144,211.2964,77.1775,282.9623,0,U,32289,999,786,.19005045E-3,.1815E-4,0
COSMO-SKYMED 2,2007-059A,2026-06-30T12:40:30.216000,14.82156083,.00013416,97.8888,4.9326,89.3578,270.7789,0,U,32376,999,398,.55826805E-4,.392E-5,0
RADARSAT-2,2007-061A,2026-06-30T13:00:44.847072,14.29980502,.000129,98.5787,188.2848,90.6581,269.4749,0,U,32382,999,96786,.3383E-4,.44E-6,0
CARTOSAT-2A,2008-021A,2026-06-30T13:48:14.402880,14.79260781,.00133035,97.7630,229.8266,70.1444,290.1200,0,U,32783,999,98078,.18681721E-3,.134E-4,0
HUANJING 1A (HJ-1A),2008-041A,2026-06-30T14:01:22.304352,14.84016883,.00206339,97.6681,166.9045,93.8126,266.5448,0,U,33320,999,96039,.16590414E-3,.1335E-4,0
HUANJING 1B (HJ-1B),2008-041B,2026-06-30T13:25:38.880192,14.83338625,.00371874,97.6518,170.0123,137.3967,223.0142,0,U,33321,999,96039,.5115517E-4,.372E-5,0
GEOEYE 1,2008-042A,2026-06-30T12:59:46.261824,14.64637965,.00050222,98.1335,255.3084,31.5913,328.5591,0,U,33331,999,95210,.93243154E-4,.448E-5,0
THEOS,2008-049A,2026-06-30T13:36:13.510656,14.20136366,.0001136,98.5569,238.4159,80.1124,280.0181,0,U,33396,999,91986,.24754805E-3,.485E-5,0
COSMO-SKYMED 3,2008-054A,2026-06-30T13:20:18.832128,15.07031725,.00147703,97.8266,40.3477,217.6707,142.3487,0,U,33412,999,95895,.26380276E-3,.3896E-4,0
YAOGAN-4,2008-061A,2026-06-30T09:21:11.637792,14.83225724,.0015085,97.9309,114.8027,32.8748,327.3401,0,U,33446,999,94762,.13690122E-3,.1066E-4,0
GOSAT (IBUKI),2009-002A,2026-06-30T07:08:25.232064,14.67536965,.000122,98.0904,292.2155,80.6175,279.5168,0,U,33492,999,93338,-.2021699E-5,-.6E-6,0
DEIMOS-1,2009-041A,2026-06-30T13:09:27.458208,14.75252002,.00023359,97.7411,338.1970,112.5417,247.6040,0,U,35681,999,90885,.12602066E-3,.805E-5,0
