SCD 1                   
1 22490U 93009B   26180.92934374  .00000428  00000+0  65876-4 0  9995
2 22490  24.9684 128.8985 0041629 272.8435 136.6640 14.46123593762960
TECHSAT 1B (GO-32)      
1 25397U 98043D   26181.48079174  .00000061  00000+0  46516-4 0  9990
2 25397  99.0072 174.5750 0001700 138.6209 221.5098 14.24430945453220
SCD 2                   
1 25504U 98060A   26181.16425094  .00000393  00000+0  58645-4 0  9994
2 25504  24.9967 352.1310 0016534 260.2663 261.7658 14.45530616462208
DLR-TUBSAT              
1 25757U 99029B   26181.58923356  .00000096  00000+0  35369-4 0  9998
2 25757  98.6701 177.5345 0013330 312.9188  47.0887 14.52430123435194
TERRA                   
1 25994U 99068A   26181.59606142  .00000404  00000+0  91157-4 0  9996
2 25994  97.9450 230.6103 0002600 153.0856   8.2894 14.61113534411563
MAROC-TUBSAT            
1 27004U 01056D   26181.51164394 -.00000030  00000+0  18682-4 0  9998
2 27004  99.8087 358.6226 0020570 108.4018 320.3548 13.70263063228013
AQUA                    
1 27424U 02022A   26181.53643197  .00000768  00000+0  16248-3 0  9995
2 27424  98.4284 151.0865 0000698  73.0327 354.1844 14.62177796285225
SHIYAN-1 (SY-1)         
1 28220U 04012A   26181.16525676  .00012370  00000+0  37737-3 0  9999
2 28220  97.8693 260.0791 0004485 344.4967  15.6137 15.34085164213085
AURA                    
1 28376U 04026A   26181.54334964  .00000771  00000+0  16570-3 0  9990
2 28376  98.3423 138.1077 0001161  84.3984 275.7348 14.61348648168162
IRS-P5 (CARTOSAT-1)     
1 28649U 05017A   26181.49986011  .00001364  00000+0  14294-3 0  9994
2 28649  97.5305 203.9605 0002156  64.6226 295.5216 14.91083876145800
SINAH 1                 
1 28893U 05043D   26181.58530002  .00000317  00000+0  69708-4 0  9997
2 28893  98.2878 315.9872 0013446 230.9964 129.0041 14.64166545102484
RESURS-DK 1             
1 29228U 06021A   26181.45410327  .00002144  00000+0  12632-3 0  9993
2 29228  69.9341 305.2102 0006679 285.3689  74.6739 15.13270569104582
ARIRANG-2 (KOMPSAT-2)   
1 29268U 06031A   26181.55220156 -.00000030  00000+0  28541-5 0  9999
2 29268  97.8303   5.3520 0015392  35.7519  57.0795 14.64667118 63437
LAPAN-TUBSAT            
1 29709U 07001A   26181.51989353  .00000206  00000+0  30136-4 0  9990
2 29709  98.1339 181.0448 0012917 136.9229 223.2999 14.85963103 53138
HAIYANG-1B              
1 31113U 07010A   26181.42963344  .00000091  00000+0  50222-4 0  9994
2 31113  98.3501 162.7616 0013892 157.0891 203.0915 14.31030131  2537
COSMO-SKYMED 1          
1 31598U 07023A   26181.56898384  .00001916  00000+0  17104-3 0  9999
2 31598  97.8856  13.5378 0001539  84.0270 276.1126 14.97168254 31799
TERRASAR-X              
1 31698U 07026A   26180.50909415  .00000464  00000+0  25267-4 0  9991
2 31698  97.4453 188.0412 0001826  86.2627 273.8816 15.19149675 55095
WORLDVIEW-1 (WV-1)      
1 32060U 07041A   26181.55225841  .00006070  00000+0  25044-3 0  9993
2 32060  97.3895 301.1053 0001067 320.2738  39.8421 15.24410154 44918
YAOGAN-3                
1 32289U 07055A   26181.55120153  .00001815  00000+0  19005-3 0  9993
2 32289  97.8144 211.2964 0001613  77.1775 282.9623 14.90829253  7865
COSMO-SKYMED 2          
1 32376U 07059A   26181.52812750  .00000392  00000+0  55827-4 0  9994
2 32376  97.8888   4.9326 0001341  89.3578 270.7789 14.82156083  3982
RADARSAT-2              
1 32382U 07061A   26181.54218573  .00000044  00000+0  33830-4 0  9993
2 32382  98.5787 188.2848 0001290  90.6581 269.4749 14.29980502967861
CARTOSAT-2A             
1 32783U 08021A   26181.57516670  .00001340  00000+0  18682-3 0  9994
2 32783  97.7630 229.8266 0013303  70.1444 290.1200 14.79260781980783
HUANJING 1A (HJ-1A)     
1 33320U 08041A   26181.58428593  .00001335  00000+0  16590-3 0  9991
2 33320  97.6681 166.9045 0020633  93.8126 266.5448 14.84016883960399
HUANJING 1B (HJ-1B)     
1 33321U 08041B   26181.55947778  .00000372  00000+0  51155-4 0  9997
2 33321  97.6518 170.0123 0037187 137.3967 223.0142 14.83338625960390
GEOEYE 1                
1 33331U 08042A   26181.54150766  .00000448  00000+0  93243-4 0  9999
2 33331  98.1335 255.3084 0005022  31.5913 328.5591 14.64637965952103
THEOS                   
1 33396U 08049A   26181.56682304  .00000485  00000+0  24755-3 0  9999
2 33396  98.5569 238.4159 0001136  80.1124 280.0181 14.20136366919862
COSMO-SKYMED 3          
1 33412U 08054A   26181.55577352  .00003896  00000+0  26380-3 0  9994
2 33412  97.8266  40.3477 0014770 217.6707 142.3487 15.07031725958953
YAOGAN-4                
1 33446U 08061A   26181.38971803  .00001066  00000+0  13690-3 0  9996
2 33446  97.9309 114.8027 0015085  32.8748 327.3401 14.83225724947629
GOSAT (IBUKI)           
1 33492U 09002A   26181.29751426 -.00000060  00000+0 -20217-5 0  9990
2 33492  98.0904 292.2155 0001220  80.6175 279.5168 14.67536965933387
DEIMOS-1                
1 35681U 09041A   26181.54823447  .00000805  00000+0  12602-3 0  9998
2 35681  97.7411 338.1970 0002335 112.5417 247.6040 14.75252002908850
